{
  "norad_id": 60576,
  "name": "LEMUR-2-AHMED-ASRAR",
  "history": [
    {
      "epoch": "2026-03-28T21:01:15.028896Z",
      "apogee_km": 534.0994228117052,
      "perigee_km": 533.0652913614967,
      "latitude_deg": -1.6528894098556746e-05,
      "longitude_deg": 30.645350627251855,
      "height_km": 536.8902592005285,
      "semi_major_axis_km": 6911.7193570866,
      "eccentricity": 7.481e-05,
      "inclination_deg": 97.7011,
      "raan_deg": 172.248,
      "arg_perigee_deg": 242.6494,
      "mean_anomaly_deg": 117.4659,
      "mean_motion_rev_day": 15.10857895
    },
    {
      "epoch": "2026-03-29T04:58:05.928384Z",
      "apogee_km": 534.0802775067541,
      "perigee_km": 533.0089668553164,
      "latitude_deg": -1.4139977281849118e-05,
      "longitude_deg": -88.55992191775441,
      "height_km": 536.8691441223891,
      "semi_major_axis_km": 6911.681622181035,
      "eccentricity": 7.75e-05,
      "inclination_deg": 97.701,
      "raan_deg": 172.5812,
      "arg_perigee_deg": 241.6779,
      "mean_anomaly_deg": 118.4372,
      "mean_motion_rev_day": 15.10870268
    },
    {
      "epoch": "2026-03-30T04:48:37.572768Z",
      "apogee_km": 534.10070669174,
      "perigee_km": 532.8262075674447,
      "latitude_deg": -1.5569172036258292e-05,
      "longitude_deg": -86.17113390774594,
      "height_km": 536.8848510953425,
      "semi_major_axis_km": 6911.600457129592,
      "eccentricity": 9.22e-05,
      "inclination_deg": 97.7008,
      "raan_deg": 173.581,
      "arg_perigee_deg": 236.5974,
      "mean_anomaly_deg": 123.5167,
      "mean_motion_rev_day": 15.10896882
    },
    {
      "epoch": "2026-03-30T11:10:05.731968Z",
      "apogee_km": 534.1245238359334,
      "perigee_km": 532.7557550992333,
      "latitude_deg": 5.339472191694739e-05,
      "longitude_deg": 178.46692065289375,
      "height_km": 536.8859466394167,
      "semi_major_axis_km": 6911.577139467583,
      "eccentricity": 9.902e-05,
      "inclination_deg": 97.7007,
      "raan_deg": 173.8475,
      "arg_perigee_deg": 236.7603,
      "mean_anomaly_deg": 123.3532,
      "mean_motion_rev_day": 15.10904528
    },
    {
      "epoch": "2026-03-30T17:31:33.741696Z",
      "apogee_km": 534.1129755775637,
      "perigee_km": 532.7077197708359,
      "latitude_deg": -5.056757535557822e-05,
      "longitude_deg": 83.10572297301024,
      "height_km": 536.8802001758681,
      "semi_major_axis_km": 6911.5473476742,
      "eccentricity": 0.00010166,
      "inclination_deg": 97.7006,
      "raan_deg": 174.1141,
      "arg_perigee_deg": 235.3844,
      "mean_anomaly_deg": 124.7289,
      "mean_motion_rev_day": 15.10914297
    },
    {
      "epoch": "2026-03-31T06:14:29.438880Z",
      "apogee_km": 534.0933835162923,
      "perigee_km": 532.639203223368,
      "latitude_deg": -1.476042295288251e-05,
      "longitude_deg": -107.61535862153224,
      "height_km": 536.8667377455894,
      "semi_major_axis_km": 6911.50329336983,
      "eccentricity": 0.0001052,
      "inclination_deg": 97.7006,
      "raan_deg": 174.6473,
      "arg_perigee_deg": 233.7736,
      "mean_anomaly_deg": 126.3396,
      "mean_motion_rev_day": 15.10928743
    },
    {
      "epoch": "2026-04-01T04:29:35.801088Z",
      "apogee_km": 534.0631429676023,
      "perigee_km": 532.5144306772909,
      "latitude_deg": 4.781134890050562e-05,
      "longitude_deg": -81.37262257628294,
      "height_km": 536.86052414801,
      "semi_major_axis_km": 6911.425786822446,
      "eccentricity": 0.00011204,
      "inclination_deg": 97.7007,
      "raan_deg": 175.5804,
      "arg_perigee_deg": 229.6909,
      "mean_anomaly_deg": 130.4223,
      "mean_motion_rev_day": 15.10954159
    },
    {
      "epoch": "2026-04-02T12:16:50.908512Z",
      "apogee_km": 533.968371335056,
      "perigee_km": 532.3337134872645,
      "latitude_deg": -3.84779498514855e-05,
      "longitude_deg": 161.84217532435284,
      "height_km": 536.8376983336711,
      "semi_major_axis_km": 6911.28804241116,
      "eccentricity": 0.00011826,
      "inclination_deg": 97.7009,
      "raan_deg": 176.9136,
      "arg_perigee_deg": 221.1039,
      "mean_anomaly_deg": 139.0101,
      "mean_motion_rev_day": 15.1099933
    },
    {
      "epoch": "2026-04-03T18:28:40.130688Z",
      "apogee_km": 533.782180519519,
      "perigee_km": 532.1387215456634,
      "latitude_deg": 2.4034524716344174e-05,
      "longitude_deg": 68.91372782450678,
      "height_km": 536.7332757425108,
      "semi_major_axis_km": 6911.097451032591,
      "eccentricity": 0.0001189,
      "inclination_deg": 97.7009,
      "raan_deg": 178.1804,
      "arg_perigee_deg": 211.2956,
      "mean_anomaly_deg": 148.8203,
      "mean_motion_rev_day": 15.11061835
    },
    {
      "epoch": "2026-04-04T18:19:00.148224Z",
      "apogee_km": 533.7047050302917,
      "perigee_km": 531.9451741204766,
      "latitude_deg": -5.727101285920835e-05,
      "longitude_deg": 71.35140303698915,
      "height_km": 536.7027493898304,
      "semi_major_axis_km": 6910.961939575384,
      "eccentricity": 0.0001273,
      "inclination_deg": 97.7006,
      "raan_deg": 179.1805,
      "arg_perigee_deg": 203.4332,
      "mean_anomaly_deg": 156.6839,
      "mean_motion_rev_day": 15.11106279
    },
    {
      "epoch": "2026-04-05T11:47:53.553120Z",
      "apogee_km": 533.6943335941614,
      "perigee_km": 531.8122217359414,
      "latitude_deg": 3.2736483380505476e-05,
      "longitude_deg": 169.14432967790117,
      "height_km": 536.706900572275,
      "semi_major_axis_km": 6910.890277665051,
      "eccentricity": 0.00013617,
      "inclination_deg": 97.7004,
      "raan_deg": 179.9139,
      "arg_perigee_deg": 200.2261,
      "mean_anomaly_deg": 159.8915,
      "mean_motion_rev_day": 15.11129783
    },
    {
      "epoch": "2026-04-05T18:09:18.221760Z",
      "apogee_km": 533.6877733622396,
      "perigee_km": 531.7693170868852,
      "latitude_deg": 2.7865266384472865e-05,
      "longitude_deg": 73.7971772071224,
      "height_km": 536.7098916490328,
      "semi_major_axis_km": 6910.865545224562,
      "eccentricity": 0.0001388,
      "inclination_deg": 97.7003,
      "raan_deg": 180.1806,
      "arg_perigee_deg": 198.2879,
      "mean_anomaly_deg": 161.8301,
      "mean_motion_rev_day": 15.11137895
    },
    {
      "epoch": "2026-04-06T05:16:46.094880Z",
      "apogee_km": 533.6521647904656,
      "perigee_km": 531.7280523069048,
      "latitude_deg": -2.9512256605428188e-05,
      "longitude_deg": -93.0591173113475,
      "height_km": 536.6847708352691,
      "semi_major_axis_km": 6910.827108548685,
      "eccentricity": 0.00013921,
      "inclination_deg": 97.7003,
      "raan_deg": 180.6473,
      "arg_perigee_deg": 196.14,
      "mean_anomaly_deg": 163.9785,
      "mean_motion_rev_day": 15.11150502
    }
  ]
}